      2.10          N: GNSS NAV DATA                        RINEX VERSION / TYPE
fic2rin                                 02/29/2020 00:20:19 PGM / RUN BY / DATE
                                                            END OF HEADER
22 20  2 28 16  0  0.0-7.851715199649e-04-3.410605131648e-13 0.000000000000e+00
    8.200000000000e+01-2.062500000000e+01 5.448084077427e-09-2.320369071794e+00
   -8.866190910339e-07 7.136488799006e-03 4.209578037262e-06 5.153558240891e+03
    4.896000000000e+05 3.166496753693e-08-6.246474861379e-01 1.229345798492e-07
    9.299079571647e-01 2.772187500000e+02-1.217446183612e+00-8.554999207199e-09
    8.428922527028e-11 1.000000000000e+00 2.094000000000e+03 0.000000000000e+00
    2.400000000000e+00 0.000000000000e+00-1.816079020500e-08 8.200000000000e+01
    4.824000000000e+05 4.000000000000e+00
27 20  2 28 16  0  0.0-2.242494374514e-04-1.091393642128e-11 0.000000000000e+00
    9.400000000000e+01-4.162500000000e+01 3.853731951976e-09-1.392156794678e+00
   -2.175569534302e-06 7.950124680065e-03 9.628012776375e-06 5.153661354065e+03
    4.896000000000e+05 1.620501279831e-07-2.638315530992e+00-2.048909664154e-07
    9.786039327933e-01 2.037812500000e+02 5.096793948555e-01-7.699249276065e-09
   -2.053656971627e-10 1.000000000000e+00 2.094000000000e+03 0.000000000000e+00
    3.400000000000e+00 0.000000000000e+00 1.396983861923e-09 9.400000000000e+01
    4.824000000000e+05 4.000000000000e+00
24 20  2 28 16  0  0.0-9.690877050161e-06-5.684341886081e-13 0.000000000000e+00
    6.300000000000e+01 8.321875000000e+01 5.102355390725e-09 2.931602585152e+00
    4.140660166740e-06 9.550575865433e-03 8.005648851395e-06 5.153665458679e+03
    4.896000000000e+05-5.774199962616e-08 1.493391199749e+00-1.098960638046e-07
    9.366362963070e-01 2.115000000000e+02 6.627834417393e-01-8.233914404157e-09
    2.482246252663e-10 1.000000000000e+00 2.094000000000e+03 0.000000000000e+00
    2.400000000000e+00 0.000000000000e+00 2.793967723846e-09 6.300000000000e+01
    4.824000000000e+05 4.000000000000e+00
14 20  2 28 16  0  0.0-2.955179661512e-05 2.501110429876e-12 0.000000000000e+00
    4.700000000000e+01-1.168750000000e+01 4.458042838236e-09-1.662652037205e+00
   -4.805624485016e-07 1.100006990600e-02 1.082941889763e-05 5.153620933533e+03
    4.896000000000e+05 2.197921276093e-07 5.846004709104e-01 9.499490261078e-08
    9.607918928389e-01 1.673750000000e+02-1.929354222810e+00-7.822825852097e-09
   -1.082187934614e-10 1.000000000000e+00 2.094000000000e+03 0.000000000000e+00
    2.400000000000e+00 0.000000000000e+00-9.778887033463e-09 4.700000000000e+01
    4.824000000000e+05 4.000000000000e+00
30 20  2 28 16  0  0.0-1.638540998101e-04-8.867573342286e-12 0.000000000000e+00
    6.100000000000e+01 7.003125000000e+01 5.257719005101e-09 1.986351461249e+00
    3.743916749954e-06 4.300391185097e-03 7.128342986107e-06 5.153685884476e+03
    4.896000000000e+05-7.636845111847e-08 1.588099462900e+00 1.192092895508e-07
    9.386967813116e-01 2.334375000000e+02-2.931719470844e+00-8.481424713954e-09
    2.171519023912e-10 1.000000000000e+00 2.094000000000e+03 0.000000000000e+00
    2.400000000000e+00 0.000000000000e+00 3.725290298462e-09 6.100000000000e+01
    4.824000000000e+05 4.000000000000e+00
19 20  2 28 16  0  0.0-1.925267279148e-04 5.115907697473e-12 0.000000000000e+00
    6.500000000000e+01-2.662500000000e+01 3.825873648708e-09 1.218540573609e+00
   -1.648440957069e-06 9.196953964420e-03 1.051835715771e-05 5.153678758621e+03
    4.896000000000e+05-5.587935447693e-08-2.534755646473e+00-1.732259988785e-07
    9.824491412816e-01 1.940312500000e+02 1.565485473348e+00-7.791395971488e-09
   -1.810789712374e-10 1.000000000000e+00 2.094000000000e+03 0.000000000000e+00
    2.400000000000e+00 0.000000000000e+00-1.536682248116e-08 6.500000000000e+01
    4.824000000000e+05 4.000000000000e+00
17 20  2 28 16  0  0.0 2.237060107291e-04 6.480149750132e-12 0.000000000000e+00
    3.600000000000e+01-2.171875000000e+01 3.797658187707e-09-1.487334481908e+00
   -1.024454832077e-06 1.334967382718e-02 1.004897058010e-05 5.153662656784e+03
    4.896000000000e+05 4.656612873077e-08-2.580503954816e+00 3.725290298462e-07
    9.843680275195e-01 2.002812500000e+02-1.649126977741e+00-7.737107995890e-09
   -1.942938074027e-10 1.000000000000e+00 2.094000000000e+03 0.000000000000e+00
    2.400000000000e+00 0.000000000000e+00-1.117587089539e-08 3.600000000000e+01
    4.824000000000e+05 4.000000000000e+00
20 20  2 28 16  0  0.0 5.278745666146e-04 0.000000000000e+00 0.000000000000e+00
    4.200000000000e+01-2.065625000000e+01 5.486299954986e-09 2.201228340236e+00
   -1.106411218643e-06 5.035461043008e-03 4.533678293228e-06 5.153624973297e+03
    4.896000000000e+05 2.980232238770e-08-6.724145058603e-01 5.960464477539e-08
    9.331721238503e-01 2.756562500000e+02 2.607922306318e+00-8.603572659049e-09
   -3.571577341961e-12 1.000000000000e+00 2.094000000000e+03 0.000000000000e+00
    2.400000000000e+00 0.000000000000e+00-8.847564458847e-09 4.200000000000e+01
    4.824000000000e+05 4.000000000000e+00
23 20  2 28 16  0  0.0-1.332019455731e-04 2.614797267597e-12 0.000000000000e+00
    8.600000000000e+01-3.209375000000e+01 4.811986152824e-09-2.864886587969e+00
   -1.909211277962e-06 1.352186838631e-02 1.063570380211e-05 5.153663803101e+03
    4.896000000000e+05 1.229345798492e-07 4.817168948822e-01-2.086162567139e-07
    9.438498034528e-01 1.653750000000e+02-2.192962155276e+00-7.940330746647e-09
   -8.143196339671e-11 1.000000000000e+00 2.094000000000e+03 0.000000000000e+00
    2.400000000000e+00 0.000000000000e+00-2.002343535423e-08 8.600000000000e+01
    4.824000000000e+05 4.000000000000e+00
13 20  2 28 16  0  0.0-9.511597454548e-06 2.842170943040e-12 0.000000000000e+00
    9.500000000000e+01 4.093750000000e+00 4.298393331050e-09-2.229123354335e+00
    1.024454832077e-07 4.168348619714e-03 1.098774373531e-05 5.153664213181e+03
    4.896000000000e+05 8.195638656616e-08 6.309265294910e-01 1.862645149231e-08
    9.681736136200e-01 1.705312500000e+02 1.150257154793e+00-7.779252608525e-09
   -3.250135381184e-11 1.000000000000e+00 2.094000000000e+03 0.000000000000e+00
    2.400000000000e+00 0.000000000000e+00-1.117587089539e-08 9.500000000000e+01
    4.824000000000e+05 4.000000000000e+00
21 20  2 28 16  0  0.0-3.469828516245e-05 5.343281372916e-12 0.000000000000e+00
    9.900000000000e+01 2.256250000000e+01 4.846630453041e-09 8.748126629103e-01
    8.773058652878e-07 2.485913166311e-02 8.564442396164e-06 5.153551959991e+03
    4.896000000000e+05-2.384185791016e-07-1.654672146777e+00-3.781169652939e-07
    9.517319168259e-01 2.155937500000e+02-1.357347792744e+00-8.608572867328e-09
    3.493002640438e-10 1.000000000000e+00 2.094000000000e+03 0.000000000000e+00
    2.400000000000e+00 0.000000000000e+00-1.024454832077e-08 9.900000000000e+01
    4.824000000000e+05 4.000000000000e+00
11 20  2 28 16  0  0.0-3.482196480036e-04 1.080024958355e-11 0.000000000000e+00
    1.250000000000e+02 8.281250000000e+00 5.277719838216e-09 2.252567301201e+00
    5.550682544708e-07 1.589554641396e-02 8.905306458473e-06 5.153715955734e+03
    4.896000000000e+05 1.974403858185e-07-2.051828592108e+00 1.117587089539e-07
    9.119782283767e-01 1.788750000000e+02 1.964520053871e+00-8.163554330520e-09
    1.117903708034e-10 1.000000000000e+00 2.094000000000e+03 0.000000000000e+00
    2.400000000000e+00 0.000000000000e+00-1.257285475731e-08 1.250000000000e+02
    4.824000000000e+05 4.000000000000e+00
12 20  2 28 16  0  0.0 1.462483778596e-04-4.206412995700e-12 0.000000000000e+00
    8.700000000000e+01-2.331250000000e+01 4.373753612965e-09 1.342799590319e+00
   -1.352280378342e-06 8.018279215321e-03 5.178153514862e-06 5.153737348557e+03
    4.896000000000e+05-2.011656761169e-07 2.669214486446e+00-2.607703208923e-08
    9.794233775778e-01 2.913750000000e+02 1.112740987843e+00-8.209984835965e-09
   -3.428714248282e-10 1.000000000000e+00 2.094000000000e+03 0.000000000000e+00
    2.400000000000e+00 0.000000000000e+00-1.257285475731e-08 8.700000000000e+01
    4.824000000000e+05 4.000000000000e+00
26 20  2 28 16  0  0.0 1.575741916895e-04 7.617018127348e-12 0.000000000000e+00
    9.100000000000e+01-7.218750000000e+00 5.168786729286e-09 3.950614925140e-01
   -3.743916749954e-07 4.678962402977e-03 3.740191459656e-06 5.153570779800e+03
    4.896000000000e+05 1.676380634308e-08 2.567771843764e+00 4.656612873077e-08
    9.478213217511e-01 2.955000000000e+02 1.969859014363e-01-8.617501810683e-09
   -2.678683006471e-10 1.000000000000e+00 2.094000000000e+03 0.000000000000e+00
    3.400000000000e+00 0.000000000000e+00 7.450580596924e-09 9.100000000000e+01
    4.824000000000e+05 4.000000000000e+00
28 20  2 28 16  0  0.0 7.362645119429e-04-2.614797267597e-12 0.000000000000e+00
    9.100000000000e+01-2.325000000000e+01 4.463757361983e-09-6.816045426051e-01
   -1.164153218269e-06 1.860949769616e-02 5.220994353294e-06 5.153665922165e+03
    4.896000000000e+05-2.123415470123e-07 2.691873552893e+00-1.862645149231e-08
    9.787023725508e-01 2.913125000000e+02-1.414354965859e+00-8.512854594564e-09
   -2.289381076197e-10 1.000000000000e+00 2.094000000000e+03 0.000000000000e+00
    4.850000000000e+00 0.000000000000e+00-1.117587089539e-08 9.100000000000e+01
    4.824000000000e+05 4.000000000000e+00
18 20  2 28 16  0  0.0 4.801433533430e-06 1.705302565824e-12 0.000000000000e+00
    9.000000000000e+01 2.590625000000e+01 4.405183493574e-09 2.415201084648e+00
    1.315027475357e-06 1.570069498848e-02 7.815659046173e-06 5.153634664536e+03
    4.896000000000e+05 2.253800630569e-07-1.644012231388e+00-8.754432201385e-08
    9.573486123153e-01 2.237187500000e+02 1.455849161093e+00-7.801753545779e-09
    3.603721538038e-10 1.000000000000e+00 2.094000000000e+03 0.000000000000e+00
    3.400000000000e+00 6.300000000000e+01-5.587935447693e-09 9.000000000000e+01
    4.824000000000e+05 4.000000000000e+00
